{
  "id": 85899173,
  "type": "Feature",
  "properties": {
    "edtf:cessation":"uuuu",
    "edtf:inception":"uuuu",
    "geom:area":0.005211,
    "geom:area_square_m":42919571.084507,
    "geom:bbox":"11.593425,48.186232,11.7022,48.273084",
    "geom:latitude":48.230285,
    "geom:longitude":11.649436,
    "iso:country":"DE",
    "lbl:latitude":48.214892,
    "lbl:longitude":11.626366,
    "lbl:max_zoom":18.0,
    "mps:latitude":48.233389,
    "mps:longitude":11.650264,
    "mz:hierarchy_label":1,
    "mz:is_current":1,
    "mz:is_funky":0,
    "mz:is_hard_boundary":0,
    "mz:is_landuse_aoi":0,
    "mz:is_official":0,
    "mz:max_zoom":18.0,
    "mz:min_zoom":14.0,
    "mz:tier_locality":5,
    "mz:tier_metro":30,
    "name:deu_x_colloquial":[
        "Froettmaning",
        "Frottmaning"
    ],
    "name:deu_x_preferred":[
        "Fr\u00f6ttmaning"
    ],
    "name:deu_x_variant":[
        "Fr\u00f6ttmaning"
    ],
    "name:eng_x_preferred":[
        "Fr\u00f6ttmaning"
    ],
    "name:fra_x_preferred":[
        "Fr\u00f6ttmaning"
    ],
    "name:hun_x_preferred":[
        "Fr\u00f6ttmaning"
    ],
    "name:ita_x_preferred":[
        "Fr\u00f6ttmaning"
    ],
    "name:nld_x_preferred":[
        "Fr\u00f6ttmaning"
    ],
    "name:pol_x_preferred":[
        "Fr\u00f6ttmaning"
    ],
    "name:por_x_preferred":[
        "Fr\u00f6ttmaning"
    ],
    "name:ukr_x_preferred":[
        "\u0424\u0440\u044c\u043e\u0442\u0442\u043c\u0430\u043d\u0456\u043d\u0433"
    ],
    "name:zho_x_preferred":[
        "\u74e6\u723e\u5361"
    ],
    "name:zho_x_variant":[
        "\u5f17\u5415\u9a6c\u5b81\u7ad9"
    ],
    "qs:gn_adm0_cc":"DE",
    "qs:gn_fcode":"PPL",
    "qs:gn_local":2867714,
    "qs:gn_namadm1":"02",
    "qs:gn_name":"Fr\u00f6ttmaning",
    "qs:local_max":28410,
    "qs:local_sum":217645,
    "qs:localhoods":64,
    "qs:name":"Fr\u00f6ttmaning",
    "qs:name_adm0":"Deutschland",
    "qs:name_adm1":"Bayern",
    "qs:name_adm2":"Stadtkreis M\u00fcnchen",
    "qs:name_lau":"Schwabing-Freimann",
    "qs:name_local":"Munich",
    "qs:photo_max":1792,
    "qs:photo_sum":6288,
    "qs:placetype":"Suburb",
    "qs:quad_count":105,
    "qs:woe_adm0":23424829,
    "qs:woe_adm1":2345482,
    "qs:woe_adm2":20071093,
    "qs:woe_lau":26823082,
    "qs:woe_local":676757,
    "qs:woe_ver":"7.10.0",
    "src:geom":"quattroshapes",
    "src:geom_alt":[
        "quattroshapes_pg"
    ],
    "src:lbl_centroid":"mz",
    "wof:belongsto":[
        102191581,
        85633111,
        1377690691,
        404227567,
        101748479,
        102063261,
        85682571
    ],
    "wof:breaches":[],
    "wof:concordances":{
        "gn:id":2924129,
        "gp:id":651030,
        "qs_pg:id":1115944,
        "wd:id":"Q1471844",
        "wk:page":"Fr\u00f6ttmaning"
    },
    "wof:country":"DE",
    "wof:geom_alt":[
        "quattroshapes_pg"
    ],
    "wof:geomhash":"d41d1234b953f1ae40b7a93653ac5d83",
    "wof:hierarchy":[
        {
            "continent_id":102191581,
            "country_id":85633111,
            "county_id":102063261,
            "localadmin_id":1377690691,
            "locality_id":101748479,
            "macrocounty_id":404227567,
            "neighbourhood_id":85899173,
            "region_id":85682571
        }
    ],
    "wof:id":85899173,
    "wof:lang":[
        "ger"
    ],
    "wof:lastmodified":1760606386,
    "wof:name":"Froettmaning",
    "wof:parent_id":101748479,
    "wof:placetype":"neighbourhood",
    "wof:repo":"whosonfirst-data-admin-de",
    "wof:superseded_by":[],
    "wof:supersedes":[],
    "wof:tags":[]
},
  "bbox": [
    11.593425,
    48.186232,
    11.7022,
    48.273084
],
  "geometry": {"coordinates":[11.649436,48.214892],"type":"Point"}
}